ITAMSAT (IO-26) 
1 22826U 93061D   26068.78588609  .00000151  00000-0  73937-4 0  9992
2 22826  98.6929 136.1036 0009186  22.8845 337.2746 14.31337175693092
RASSVET 1-4
1 59779U 24092G   26068.92434872  .00000304  00000-0  13020-3 0  9991
2 59779  98.6550 188.1467 0012759 137.1835 223.0344 14.31801198 94691
