[{"OBJECT_NAME":"ITAMSAT (IO-26)","OBJECT_ID":"1993-061D","EPOCH":"2026-03-09T18:51:40.558176","MEAN_MOTION":14.31337175,"ECCENTRICITY":0.00091856,"INCLINATION":98.6929,"RA_OF_ASC_NODE":136.1036,"ARG_OF_PERICENTER":22.8845,"MEAN_ANOMALY":337.2746,"EPHEMERIS_TYPE":0,"CLASSIFICATION_TYPE":"U","NORAD_CAT_ID":22826,"ELEMENT_SET_NO":999,"REV_AT_EPOCH":69309,"BSTAR":7.3937292e-5,"MEAN_MOTION_DOT":1.51e-6,"MEAN_MOTION_DDOT":0},{"OBJECT_NAME":"OBJECT G","OBJECT_ID":"2024-092G","EPOCH":"2026-03-09T22:11:03.729408","MEAN_MOTION":14.31801198,"ECCENTRICITY":0.00127592,"INCLINATION":98.655,"RA_OF_ASC_NODE":188.1467,"ARG_OF_PERICENTER":137.1835,"MEAN_ANOMALY":223.0344,"EPHEMERIS_TYPE":0,"CLASSIFICATION_TYPE":"U","NORAD_CAT_ID":59779,"ELEMENT_SET_NO":999,"REV_AT_EPOCH":9469,"BSTAR":0.00013020254,"MEAN_MOTION_DOT":3.04e-6,"MEAN_MOTION_DDOT":0}]
